SHIJIAN-6 05B (SJ-6 05B)
1 49962U 21122B   26068.69026669  .00003434  00000+0  20679-3 0  9994
2 49962  97.3727  52.7566 0002764  59.7124 300.4380 15.11445981234719
STARLINK-3758           
1 52297U 22041AN  26068.35588589 -.00000482  00000+0 -12183-4 0  9991
2 52297  53.2165 100.6189 0001376  94.6277 265.4873 15.08839949214453
